PRAETORIAN SDA_617      
1 65580U 25203R   25278.48538953  .00000106  00000+0  83041-4 0  9991
2 65580  81.3014 246.7195 0009111 154.2776 205.8836 13.85060279  3456
PRAETORIAN SDA_618      
1 65581U 25203S   25278.48084194  .00000107  00000+0  83700-4 0  9998
2 65581  81.2997 246.7053 0010240 157.1474 203.0141 13.85314111  3457
PRAETORIAN SDA_619      
1 65582U 25203T   25278.48620007  .00000115  00000+0  91043-4 0  9996
2 65582  81.3014 246.7199 0008893 154.0095 206.1510 13.85015172  4085
PRAETORIAN SDA_620      
1 65583U 25203U   25278.48694522  .00000143  00000+0  11622-3 0  9995
2 65583  81.3002 246.7151 0008696 153.7678 206.3921 13.84973528  3450
PRAETORIAN SDA_621      
1 65584U 25203V   25278.48462154  .00000091  00000+0  70000-4 0  9998
2 65584  81.2998 246.7095 0009313 154.9085 205.2526 13.85102872  3459
PRAETORIAN SDA_601      
1 65585U 25203W   25278.42471807  .00000180  00000+0  15010-3 0  9996
2 65585  81.3014 246.7982 0006252 163.5950 196.5411 13.84413295  3448
PROGRESS-MS 32          
1 65586U 25204A   25276.49892031  .00013095  00000+0  23997-3 0  9991
2 65586  51.6325 130.2428 0001007 193.4972 166.5990 15.49648180   571
NUSANTARA LIMA (NUSANT*)
1 65588U 25205A   25274.81671068 -.00000365  00000+0  00000+0 0  9996
2 65588   0.3074 269.7257 4410081 108.1681  38.5175  1.00170277   171
COSMOS 2596 [GLONASS-K1]
1 65590U 25206B   25275.45986866 -.00000019  00000+0  00000+0 0  9992
2 65590  64.8779 323.9566 0325832 289.7911 138.8908  2.12892576   416
FREGAT R/B              
1 65591U 25206C   25256.15803299 -.00000057  00000+0  00000+0 0  9999
2 65591  64.7973 324.6194 0063593 269.3577  89.9798  2.14914099    18
STARLINK-35267          
1 65592U 25207A   25278.50001156  .00121440  00000+0  22040-2 0  9996
2 65592  97.6028 341.5695 0001812  84.6121 283.4857 15.49138447  4690
STARLINK-35269          
1 65593U 25207B   25278.50001156  .00179698  00000+0  32419-2 0  9996
2 65593  97.6030 341.5700 0001895  83.6214 286.4142 15.49089615  4696
STARLINK-35191          
1 65594U 25207C   25278.50001156  .00178222  00000+0  32157-2 0  9998
2 65594  97.6031 341.5708 0001812  80.8698 291.0866 15.49090978  4532
STARLINK-35261          
1 65595U 25207D   25278.50001156  .00178045  00000+0  32127-2 0  9999
2 65595  97.6031 341.5716 0001800  84.3665 289.5125 15.49090189  4693
STARLINK-35253          
1 65596U 25207E   25278.50001156  .00177808  00000+0  32086-2 0  9990
2 65596  97.6032 341.5725 0001937  84.3239 291.4748 15.49089249  4477
STARLINK-35263          
1 65597U 25207F   25278.50001156  .00179981  00000+0  32469-2 0  9990
2 65597  97.6033 341.5734 0001807  83.1813 294.5381 15.49089414  4695
STARLINK-35248          
1 65598U 25207G   25278.50001156  .00175076  00000+0  31604-2 0  9992
2 65598  97.6032 341.5743 0001830  84.2252 295.4152 15.49089937  4696
STARLINK-35245          
1 65599U 25207H   25276.58336806 -.01504920  00000+0 -24837-1 0  9998
2 65599  97.6026 339.5451 0001802  73.6340  45.2505 15.55414748  4380
STARLINK-35229          
1 65600U 25207J   25276.58336806 -.01501212  00000+0 -24772-1 0  9990
2 65600  97.6028 339.5460 0001738  72.2523  48.5557 15.55411090  4381
STARLINK-35234          
1 65601U 25207K   25278.50001156  .00178843  00000+0  32268-2 0  9999
2 65601  97.6031 341.5770 0001848  82.7988 302.6018 15.49089647  4698
STARLINK-35255          
1 65602U 25207L   25276.58336806 -.01498841  00000+0 -24729-1 0  9997
2 65602  97.6029 339.5478 0001696  73.8815  50.7664 15.55410737  4388
STARLINK-35250          
1 65603U 25207M   25278.50001156  .00181066  00000+0  32661-2 0  9999
2 65603  97.6031 341.5792 0001800  86.5381 304.6230 15.49088623  4692
STARLINK-35251          
1 65604U 25207N   25276.58336806 -.01501662  00000+0 -24779-1 0  9990
2 65604  97.6029 339.5486 0001733  72.5611  54.0064 15.55412752  4381
STARLINK-35171          
1 65605U 25207P   25278.50001156  .00183969  00000+0  33172-2 0  9993
2 65605  97.6031 341.5799 0001733  82.8054 310.2744 15.49088393  4532
STARLINK-35195          
1 65606U 25207Q   25278.50001156  .00029738  00000+0  54710-3 0  9999
2 65606  97.6034 341.5800 0001080  87.3834 307.6192 15.49155407  4695
STARLINK-35156          
1 65607U 25207R   25278.50001156  .00010675  00000+0  19797-3 0  9996
2 65607  97.6033 341.5809 0001189  81.1833 315.7461 15.49161697  4692
STARLINK-35185          
1 65608U 25207S   25278.50001156  .00021189  00000+0  39074-3 0  9999
2 65608  97.6032 341.5821 0001197  78.8671 319.9832 15.49156528  4693
STARLINK-35053          
1 65609U 25207T   25278.50001156  .00005188  00000+0  97206-4 0  9993
2 65609  97.6030 341.5828 0001228  76.1919 324.5797 15.49163678  4539
STARLINK-35178          
1 65610U 25207U   25278.50001156  .00075522  00000+0  13795-2 0  9993
2 65610  97.6031 341.5841 0001266  68.6367 334.0463 15.49137491  4699
STARLINK-35186          
1 65611U 25207V   25278.50001156  .00008532  00000+0  15862-3 0  9999
2 65611  97.6031 341.5862 0001110  79.0936 329.3603 15.49162377  4693
STARLINK-35154          
1 65612U 25207W   25278.50001156  .00024423  00000+0  44993-3 0  9994
2 65612  97.6028 341.5848 0001250  69.9247 334.6833 15.49156866  4535
STARLINK-35162          
1 65613U 25207X   25278.50001156  .00011080  00000+0  20541-3 0  9993
2 65613  97.6029 341.5853 0001227  75.2551 331.2772 15.49161700  4690
STARLINK-35206          
1 65614U 25207Y   25278.50001156  .00006269  00000+0  11705-3 0  9999
2 65614  97.6032 341.5872 0001148  71.7254 338.6490 15.49163502  4587
STARLINK-35174          
1 65615U 25207Z   25278.50001156 -.00013955  00000+0 -25525-3 0  9997
2 65615  97.6032 341.5897 0001101  70.3348 341.9377 15.49186310  4698
CYGNUS NG-23            
1 65616U 25208A   25276.49892031  .00013095  00000+0  23997-3 0  9999
2 65616  51.6325 130.2428 0001007 193.4972 166.5990 15.49648180   227
HJS-7A                  
1 65617U 25209A   25276.63240102 -.00000033  00000+0  54210-4 0  9995
2 65617  49.9979 265.0165 0001987 218.0527 142.0246 14.24473915  2516
HJS-7B                  
1 65618U 25209B   25278.45564456 -.00000101  00000+0  25024-4 0  9996
2 65618  49.9981 257.3259 0001784 226.4927 133.5838 14.24529764  2763
HJS-7C                  
1 65619U 25209C   25278.45497301 -.00000109  00000+0  21900-4 0  9998
2 65619  49.9982 257.3214 0001530 233.6677 126.4095 14.24579901  2750
HJS-7D                  
1 65620U 25209D   25278.45296529 -.00000128  00000+0  13662-4 0  9996
2 65620  50.0010 257.3092 0001411 247.3252 112.7512 14.24738171  2758
STARLINK-35247          
1 65622U 25210A   25278.50001156 -.02006137  00000+0 -35124-1 0  9999
2 65622  53.1594 311.3559 0001103  71.9503 248.8745 15.53188701  3962
STARLINK-35239          
1 65623U 25210B   25278.50001156 -.02008415  00000+0 -35168-1 0  9999
2 65623  53.1598 311.3513 0001167  83.0785 239.6669 15.53188585  3966
STARLINK-35151          
1 65624U 25210C   25278.50001156 -.02014892  00000+0 -35288-1 0  9999
2 65624  53.1591 311.3349 0001124  77.1248 253.2832 15.53194192  3884
STARLINK-35153          
1 65625U 25210D   25278.50001156 -.02009177  00000+0 -35183-1 0  9994
2 65625  53.1595 311.3271 0001109  80.9720 253.2748 15.53188859  3882
STARLINK-35225          
1 65626U 25210E   25278.50001156 -.02009124  00000+0 -35182-1 0  9996
2 65626  53.1590 311.3472 0001137  80.7906 243.8712 15.53189160  3967
STARLINK-35217          
1 65627U 25210F   25278.50001156 -.02007378  00000+0 -35151-1 0  9992
2 65627  53.1593 311.3429 0001044  88.2078 238.3734 15.53187089  3964
STARLINK-35128          
1 65628U 25210G   25278.50001156 -.02005368  00000+0 -35111-1 0  9996
2 65628  53.1594 311.3312 0001274  80.4242 251.9068 15.53185636  3966
STARLINK-35135          
1 65629U 25210H   25278.50001156 -.02012133  00000+0 -35239-1 0  9996
2 65629  53.1596 311.3232 0001143  81.1176 255.0455 15.53190364  3968
STARLINK-34877          
1 65630U 25210J   25278.50001156 -.02015569  00000+0 -35302-1 0  9995
2 65630  53.1592 311.3394 0001145  75.5922 252.9012 15.53193421  3965
STARLINK-35104          
1 65631U 25210K   25278.50001156 -.02008058  00000+0 -35162-1 0  9995
2 65631  53.1594 311.3192 0001115  80.3112 257.7694 15.53188069  3967
STARLINK-35117          
1 65632U 25210L   25278.50001156 -.02013030  00000+0 -35255-1 0  9995
2 65632  53.1597 311.3161 0001182  78.3772 261.6179 15.53191503  3969
STARLINK-35103          
1 65633U 25210M   25278.50001156 -.02017538  00000+0 -35340-1 0  9998
2 65633  53.1594 311.3070 0001044  65.5131 278.3124 15.53195263  3962
STARLINK-35123          
1 65634U 25210N   25278.50001156 -.02015765  00000+0 -35306-1 0  9991
2 65634  53.1597 311.3116 0001182  76.2990 265.6124 15.53193282  3960
STARLINK-35150          
1 65635U 25210P   25278.50001156 -.02012921  00000+0 -35254-1 0  9995
2 65635  53.1594 311.3024 0001068  74.7675 270.9791 15.53191113  3962
STARLINK-35209          
1 65636U 25210Q   25278.50001156 -.02018699  00000+0 -35362-1 0  9994
2 65636  53.1593 311.2986 0001142  58.6627 288.9977 15.53194638  3969
STARLINK-35147          
1 65637U 25210R   25278.50001156 -.02012666  00000+0 -35250-1 0  9999
2 65637  53.1594 311.2944 0000996  75.1321 274.4492 15.53191016  3965
STARLINK-35213          
1 65638U 25210S   25278.50001156 -.02012673  00000+0 -35251-1 0  9999
2 65638  53.1593 311.2905 0000966  76.5638 274.9349 15.53190706  3966
STARLINK-35127          
1 65639U 25210T   25278.50001156 -.02021128  00000+0 -35407-1 0  9998
2 65639  53.1595 311.2868 0001188  73.2423 280.1699 15.53196085  3963
STARLINK-35091          
1 65640U 25210U   25278.50001156 -.02018340  00000+0 -35355-1 0  9994
2 65640  53.1594 311.2829 0001148  73.7971 281.5328 15.53194223  3966
STARLINK-35134          
1 65641U 25210V   25278.50001156 -.02011403  00000+0 -35226-1 0  9995
2 65641  53.1596 311.2786 0001029  72.5691 284.6789 15.53190153  3968
